{"type": "FeatureCollection", "features": [{"type": "Feature", "properties": {"norad_id": 24876, "name": "GPS BIIR-2  (PRN 13)", "group": "gps-ops", "lat": 6.694182430363889, "lon": -78.91893605237419, "alt_km": 20288.006258251873, "timestamp": "2025-12-18T10:51:26.064457+00:00", "meta": {"OBJECT_NAME": "GPS BIIR-2  (PRN 13)", "OBJECT_ID": "1997-035A", "EPOCH": "2025-12-17T17:14:35.683584", "MEAN_MOTION": 2.00563712, "ECCENTRICITY": 0.00967872, "INCLINATION": 55.8976, "RA_OF_ASC_NODE": 105.6742, "ARG_OF_PERICENTER": 56.9828, "MEAN_ANOMALY": 303.9131, "EPHEMERIS_TYPE": 0, "CLASSIFICATION_TYPE": "U", "NORAD_CAT_ID": 24876, "ELEMENT_SET_NO": 999, "REV_AT_EPOCH": 20831, "BSTAR": 0, "MEAN_MOTION_DOT": -2.3e-07, "MEAN_MOTION_DDOT": 0}, "tle": {"line1": "1 24876U 97035A   25351.71846856 -.00000023  00000+0  00000+0 0  9996", "line2": "2 24876  55.8976 105.6742 0096787  56.9828 303.9131  2.00563712208319"}}, "geometry": {"type": "Point", "coordinates": [-78.91893605237419, 6.694182430363889]}}, {"type": "Feature", "properties": {"norad_id": 26360, "name": "GPS BIIR-4  (PRN 20)", "group": "gps-ops", "lat": -54.43107527670325, "lon": -75.53477933368433, "alt_km": 20090.64207557136, "timestamp": "2025-12-18T10:51:26.064506+00:00", "meta": {"OBJECT_NAME": "GPS BIIR-4  (PRN 20)", "OBJECT_ID": "2000-025A", "EPOCH": "2025-12-17T20:03:48.692736", "MEAN_MOTION": 2.005674, "ECCENTRICITY": 0.00388914, "INCLINATION": 55.0482, "RA_OF_ASC_NODE": 26.6317, "ARG_OF_PERICENTER": 242.4745, "MEAN_ANOMALY": 295.2802, "EPHEMERIS_TYPE": 0, "CLASSIFICATION_TYPE": "U", "NORAD_CAT_ID": 26360, "ELEMENT_SET_NO": 999, "REV_AT_EPOCH": 18763, "BSTAR": 0, "MEAN_MOTION_DOT": -7.7e-07, "MEAN_MOTION_DDOT": 0}, "tle": {"line1": "1 26360U 00025A   25351.83598024 -.00000077  00000+0  00000+0 0  9992", "line2": "2 26360  55.0482  26.6317 0038891 242.4745 295.2802  2.00567400187632"}}, "geometry": {"type": "Point", "coordinates": [-75.53477933368433, -54.43107527670325]}}, {"type": "Feature", "properties": {"norad_id": 26407, "name": "GPS BIIR-5  (PRN 22)", "group": "gps-ops", "lat": 52.88483889222798, "lon": -25.954477384069133, "alt_km": 20490.293446714513, "timestamp": "2025-12-18T10:51:26.064525+00:00", "meta": {"OBJECT_NAME": "GPS BIIR-5  (PRN 22)", "OBJECT_ID": "2000-040A", "EPOCH": "2025-12-17T13:07:08.215968", "MEAN_MOTION": 2.00568099, "ECCENTRICITY": 0.0125756, "INCLINATION": 54.8897, "RA_OF_ASC_NODE": 222.3778, "ARG_OF_PERICENTER": 301.8897, "MEAN_ANOMALY": 226.5653, "EPHEMERIS_TYPE": 0, "CLASSIFICATION_TYPE": "U", "NORAD_CAT_ID": 26407, "ELEMENT_SET_NO": 999, "REV_AT_EPOCH": 18630, "BSTAR": 0, "MEAN_MOTION_DOT": 7.1e-07, "MEAN_MOTION_DDOT": 0}, "tle": {"line1": "1 26407U 00040A   25351.54662287  .00000071  00000+0  00000+0 0  9995", "line2": "2 26407  54.8897 222.3778 0125756 301.8897 226.5653  2.00568099186301"}}, "geometry": {"type": "Point", "coordinates": [-25.954477384069133, 52.88483889222798]}}, {"type": "Feature", "properties": {"norad_id": 27663, "name": "GPS BIIR-8  (PRN 16)", "group": "gps-ops", "lat": -44.05196219250965, "lon": 84.96014665302627, "alt_km": 20576.805921448682, "timestamp": "2025-12-18T10:51:26.064541+00:00", "meta": {"OBJECT_NAME": "GPS BIIR-8  (PRN 16)", "OBJECT_ID": "2003-005A", "EPOCH": "2025-12-17T15:19:29.390304", "MEAN_MOTION": 2.00570709, "ECCENTRICITY": 0.01476333, "INCLINATION": 54.9222, "RA_OF_ASC_NODE": 222.1834, "ARG_OF_PERICENTER": 51.8674, "MEAN_ANOMALY": 318.886, "EPHEMERIS_TYPE": 0, "CLASSIFICATION_TYPE": "U", "NORAD_CAT_ID": 27663, "ELEMENT_SET_NO": 999, "REV_AT_EPOCH": 16767, "BSTAR": 0, "MEAN_MOTION_DOT": 7.2e-07, "MEAN_MOTION_DDOT": 0}, "tle": {"line1": "1 27663U 03005A   25351.63853461  .00000072  00000+0  00000+0 0  9991", "line2": "2 27663  54.9222 222.1834 0147633  51.8674 318.8860  2.00570709167678"}}, "geometry": {"type": "Point", "coordinates": [84.96014665302627, -44.05196219250965]}}, {"type": "Feature", "properties": {"norad_id": 28190, "name": "GPS BIIR-11 (PRN 19)", "group": "gps-ops", "lat": 28.775210643386114, "lon": -54.415104451175566, "alt_km": 20368.926413445482, "timestamp": "2025-12-18T10:51:26.064555+00:00", "meta": {"OBJECT_NAME": "GPS BIIR-11 (PRN 19)", "OBJECT_ID": "2004-009A", "EPOCH": "2025-12-16T15:39:18.319104", "MEAN_MOTION": 2.00560719, "ECCENTRICITY": 0.01083863, "INCLINATION": 54.9821, "RA_OF_ASC_NODE": 283.0612, "ARG_OF_PERICENTER": 167.7046, "MEAN_ANOMALY": 9.4896, "EPHEMERIS_TYPE": 0, "CLASSIFICATION_TYPE": "U", "NORAD_CAT_ID": 28190, "ELEMENT_SET_NO": 999, "REV_AT_EPOCH": 15928, "BSTAR": 0, "MEAN_MOTION_DOT": -6.5e-07, "MEAN_MOTION_DDOT": 0}, "tle": {"line1": "1 28190U 04009A   25350.65229536 -.00000065  00000+0  00000+0 0  9996", "line2": "2 28190  54.9821 283.0612 0108386 167.7046   9.4896  2.00560719159281"}}, "geometry": {"type": "Point", "coordinates": [-54.415104451175566, 28.775210643386114]}}, {"type": "Feature", "properties": {"norad_id": 28474, "name": "GPS BIIR-13 (PRN 02)", "group": "gps-ops", "lat": 54.377969581970376, "lon": 76.44309109491347, "alt_km": 20562.309002725517, "timestamp": "2025-12-18T10:51:26.064569+00:00", "meta": {"OBJECT_NAME": "GPS BIIR-13 (PRN 02)", "OBJECT_ID": "2004-045A", "EPOCH": "2025-12-17T13:48:23.319360", "MEAN_MOTION": 2.00569852, "ECCENTRICITY": 0.01708441, "INCLINATION": 55.2383, "RA_OF_ASC_NODE": 332.2112, "ARG_OF_PERICENTER": 309.4586, "MEAN_ANOMALY": 234.4084, "EPHEMERIS_TYPE": 0, "CLASSIFICATION_TYPE": "U", "NORAD_CAT_ID": 28474, "ELEMENT_SET_NO": 999, "REV_AT_EPOCH": 15478, "BSTAR": 0, "MEAN_MOTION_DOT": -8.8e-07, "MEAN_MOTION_DDOT": 0}, "tle": {"line1": "1 28474U 04045A   25351.57526990 -.00000088  00000+0  00000+0 0  9992", "line2": "2 28474  55.2383 332.2112 0170844 309.4586 234.4084  2.00569852154783"}}, "geometry": {"type": "Point", "coordinates": [76.44309109491347, 54.377969581970376]}}, {"type": "Feature", "properties": {"norad_id": 28874, "name": "GPS BIIRM-1 (PRN 17)", "group": "gps-ops", "lat": 43.75529509498664, "lon": -37.539987902081734, "alt_km": 20366.66924007521, "timestamp": "2025-12-18T10:51:26.064583+00:00", "meta": {"OBJECT_NAME": "GPS BIIRM-1 (PRN 17)", "OBJECT_ID": "2005-038A", "EPOCH": "2025-12-17T21:14:50.487648", "MEAN_MOTION": 2.00578159, "ECCENTRICITY": 0.01314846, "INCLINATION": 55.0273, "RA_OF_ASC_NODE": 280.4937, "ARG_OF_PERICENTER": 293.6629, "MEAN_ANOMALY": 73.133, "EPHEMERIS_TYPE": 0, "CLASSIFICATION_TYPE": "U", "NORAD_CAT_ID": 28874, "ELEMENT_SET_NO": 999, "REV_AT_EPOCH": 14820, "BSTAR": 0, "MEAN_MOTION_DOT": -4.9e-07, "MEAN_MOTION_DDOT": 0}, "tle": {"line1": "1 28874U 05038A   25351.88530657 -.00000049  00000+0  00000+0 0  9995", "line2": "2 28874  55.0273 280.4937 0131484 293.6629  73.1330  2.00578159148203"}}, "geometry": {"type": "Point", "coordinates": [-37.539987902081734, 43.75529509498664]}}, {"type": "Feature", "properties": {"norad_id": 29486, "name": "GPS BIIRM-2 (PRN 31)", "group": "gps-ops", "lat": -33.29265539119462, "lon": 130.75672446965754, "alt_km": 20205.944222830098, "timestamp": "2025-12-18T10:51:26.064596+00:00", "meta": {"OBJECT_NAME": "GPS BIIRM-2 (PRN 31)", "OBJECT_ID": "2006-042A", "EPOCH": "2025-12-16T18:24:54.505728", "MEAN_MOTION": 2.00554045, "ECCENTRICITY": 0.01073341, "INCLINATION": 54.6946, "RA_OF_ASC_NODE": 158.5809, "ARG_OF_PERICENTER": 52.0567, "MEAN_ANOMALY": 130.2096, "EPHEMERIS_TYPE": 0, "CLASSIFICATION_TYPE": "U", "NORAD_CAT_ID": 29486, "ELEMENT_SET_NO": 999, "REV_AT_EPOCH": 14073, "BSTAR": 0, "MEAN_MOTION_DOT": 8.7e-07, "MEAN_MOTION_DDOT": 0}, "tle": {"line1": "1 29486U 06042A   25350.76729752  .00000087  00000+0  00000+0 0  9994", "line2": "2 29486  54.6946 158.5809 0107334  52.0567 130.2096  2.00554045140735"}}, "geometry": {"type": "Point", "coordinates": [130.75672446965754, -33.29265539119462]}}, {"type": "Feature", "properties": {"norad_id": 29601, "name": "GPS BIIRM-3 (PRN 12)", "group": "gps-ops", "lat": 13.004088535204291, "lon": -129.49948202749022, "alt_km": 20103.840613207776, "timestamp": "2025-12-18T10:51:26.064609+00:00", "meta": {"OBJECT_NAME": "GPS BIIRM-3 (PRN 12)", "OBJECT_ID": "2006-052A", "EPOCH": "2025-12-16T22:25:58.603584", "MEAN_MOTION": 2.00573965, "ECCENTRICITY": 0.00876594, "INCLINATION": 54.9698, "RA_OF_ASC_NODE": 221.2318, "ARG_OF_PERICENTER": 87.3961, "MEAN_ANOMALY": 273.6987, "EPHEMERIS_TYPE": 0, "CLASSIFICATION_TYPE": "U", "NORAD_CAT_ID": 29601, "ELEMENT_SET_NO": 999, "REV_AT_EPOCH": 13975, "BSTAR": 0, "MEAN_MOTION_DOT": 7e-07, "MEAN_MOTION_DDOT": 0}, "tle": {"line1": "1 29601U 06052A   25350.93470606  .00000070  00000+0  00000+0 0  9996", "line2": "2 29601  54.9698 221.2318 0087659  87.3961 273.6987  2.00573965139753"}}, "geometry": {"type": "Point", "coordinates": [-129.49948202749022, 13.004088535204291]}}, {"type": "Feature", "properties": {"norad_id": 32260, "name": "GPS BIIRM-4 (PRN 15)", "group": "gps-ops", "lat": 17.141036915921607, "lon": -105.43537946346875, "alt_km": 20048.731664819745, "timestamp": "2025-12-18T10:51:26.064621+00:00", "meta": {"OBJECT_NAME": "GPS BIIRM-4 (PRN 15)", "OBJECT_ID": "2007-047A", "EPOCH": "2025-12-16T05:50:40.680960", "MEAN_MOTION": 2.00564415, "ECCENTRICITY": 0.01640743, "INCLINATION": 53.9576, "RA_OF_ASC_NODE": 87.6137, "ARG_OF_PERICENTER": 85.2864, "MEAN_ANOMALY": 276.5744, "EPHEMERIS_TYPE": 0, "CLASSIFICATION_TYPE": "U", "NORAD_CAT_ID": 32260, "ELEMENT_SET_NO": 999, "REV_AT_EPOCH": 13314, "BSTAR": 0, "MEAN_MOTION_DOT": -5.5e-07, "MEAN_MOTION_DDOT": 0}, "tle": {"line1": "1 32260U 07047A   25350.24352640 -.00000055  00000+0  00000+0 0  9991", "line2": "2 32260  53.9576  87.6137 0164074  85.2864 276.5744  2.00564415133141"}}, "geometry": {"type": "Point", "coordinates": [-105.43537946346875, 17.141036915921607]}}]}